{
  "norad_id": 60920,
  "name": "STARLINK-32345",
  "history": [
    {
      "epoch": "2026-03-28T17:08:39.689664Z",
      "apogee_km": 475.960646181602,
      "perigee_km": 474.48388432712454,
      "latitude_deg": 1.0951252920193228e-05,
      "longitude_deg": 112.46440493098677,
      "height_km": 476.06804330035504,
      "semi_major_axis_km": 6853.359265254363,
      "eccentricity": 0.00010774,
      "inclination_deg": 53.1609,
      "raan_deg": 195.7606,
      "arg_perigee_deg": 85.9105,
      "mean_anomaly_deg": 274.2019,
      "mean_motion_rev_day": 15.3019759
    },
    {
      "epoch": "2026-03-30T13:02:09.930336Z",
      "apogee_km": 476.0820391064399,
      "perigee_km": 474.4192701936681,
      "latitude_deg": 2.1917774221661733e-05,
      "longitude_deg": 163.7915418816771,
      "height_km": 476.14072383240637,
      "semi_major_axis_km": 6853.387654650054,
      "eccentricity": 0.00012131,
      "inclination_deg": 53.1608,
      "raan_deg": 187.2663,
      "arg_perigee_deg": 89.4375,
      "mean_anomaly_deg": 270.6765,
      "mean_motion_rev_day": 15.30188082
    },
    {
      "epoch": "2026-03-31T12:32:57.622560Z",
      "apogee_km": 476.07602888681595,
      "perigee_km": 474.4197028324361,
      "latitude_deg": 6.28803009666891e-06,
      "longitude_deg": 165.57915912359246,
      "height_km": 475.9684386232787,
      "semi_major_axis_km": 6853.384865859626,
      "eccentricity": 0.00012084,
      "inclination_deg": 53.1603,
      "raan_deg": 182.7183,
      "arg_perigee_deg": 77.6128,
      "mean_anomaly_deg": 282.5008,
      "mean_motion_rev_day": 15.30189016
    }
  ]
}